{"type": "FeatureCollection", "features": [ {"type": "Feature", "properties": {"norad_id": 30369, "name": "FENGYUN 1C DEB", "group": "fengyun-1c-debris", "lat": 78.71736263978808, "lon": -136.6488985887624, "alt_km": 822.2096604907802, "timestamp": "2025-12-21T22:41:41.735921+00:00", "meta": {"OBJECT_NAME": "FENGYUN 1C DEB", "OBJECT_ID": "1999-025ACG", "EPOCH": "2025-12-21T05:31:06.155040", "MEAN_MOTION": 14.12063441, "ECCENTRICITY": 0.0099607, "INCLINATION": 98.7214, "RA_OF_ASC_NODE": 352.354, "ARG_OF_PERICENTER": 171.3311, "MEAN_ANOMALY": 250.7956, "EPHEMERIS_TYPE": 0, "CLASSIFICATION_TYPE": "U", "NORAD_CAT_ID": 30369, "ELEMENT_SET_NO": 999, "REV_AT_EPOCH": 97366, "BSTAR": 0.00017295, "MEAN_MOTION_DOT": 2.9e-06, "MEAN_MOTION_DDOT": 0}, "tle": {"line1": "1 30369U 99025ACG 25355.22993235  .00000290  00000+0  17295-3 0  9998", "line2": "2 30369  98.7214 352.3540 0099607 171.3311 250.7956 14.12063441973665"}}, "geometry": {"type": "Point", "coordinates": [-136.6488985887624, 78.71736263978808]}}, {"type": "Feature", "properties": {"norad_id": 30370, "name": "FENGYUN 1C DEB", "group": "fengyun-1c-debris", "lat": -75.08376619456864, "lon": -164.68161310953582, "alt_km": 774.8541736854504, "timestamp": "2025-12-21T22:41:41.735931+00:00", "meta": {"OBJECT_NAME": "FENGYUN 1C DEB", "OBJECT_ID": "1999-025ACH", "EPOCH": "2025-12-21T03:00:47.417184", "MEAN_MOTION": 14.19189909, "ECCENTRICITY": 0.00995239, "INCLINATION": 99.056, "RA_OF_ASC_NODE": 51.2586, "ARG_OF_PERICENTER": 293.189, "MEAN_ANOMALY": 98.008, "EPHEMERIS_TYPE": 0, "CLASSIFICATION_TYPE": "U", "NORAD_CAT_ID": 30370, "ELEMENT_SET_NO": 999, "REV_AT_EPOCH": 97213, "BSTAR": 0.0008411548, "MEAN_MOTION_DOT": 1.804e-05, "MEAN_MOTION_DDOT": 0}, "tle": {"line1": "1 30370U 99025ACH 25355.12554881  .00001804  00000+0  84115-3 0  9996", "line2": "2 30370  99.0560  51.2586 0099523 293.1890  98.0080 14.19189909972139"}}, "geometry": {"type": "Point", "coordinates": [-164.68161310953582, -75.08376619456864]}}, {"type": "Feature", "properties": {"norad_id": 30371, "name": "FENGYUN 1C DEB", "group": "fengyun-1c-debris", "lat": -74.98640255761202, "lon": 73.04793933999036, "alt_km": 793.5943268958945, "timestamp": "2025-12-21T22:41:41.735941+00:00", "meta": {"OBJECT_NAME": "FENGYUN 1C DEB", "OBJECT_ID": "1999-025ACJ", "EPOCH": "2025-12-21T03:12:48.424320", "MEAN_MOTION": 14.30272106, "ECCENTRICITY": 0.00068667, "INCLINATION": 98.5748, "RA_OF_ASC_NODE": 38.0145, "ARG_OF_PERICENTER": 308.209, "MEAN_ANOMALY": 117.028, "EPHEMERIS_TYPE": 0, "CLASSIFICATION_TYPE": "U", "NORAD_CAT_ID": 30371, "ELEMENT_SET_NO": 999, "REV_AT_EPOCH": 98023, "BSTAR": 0.00071600846, "MEAN_MOTION_DOT": 1.814e-05, "MEAN_MOTION_DDOT": 0}, "tle": {"line1": "1 30371U 99025ACJ 25355.13389380  .00001814  00000+0  71601-3 0  9995", "line2": "2 30371  98.5748  38.0145 0006866 308.2090 117.0280 14.30272106980233"}}, "geometry": {"type": "Point", "coordinates": [73.04793933999036, -74.98640255761202]}}, {"type": "Feature", "properties": {"norad_id": 30374, "name": "FENGYUN 1C DEB", "group": "fengyun-1c-debris", "lat": -41.66148686341028, "lon": -131.05552133849932, "alt_km": 723.1915586307605, "timestamp": "2025-12-21T22:41:41.735951+00:00", "meta": {"OBJECT_NAME": "FENGYUN 1C DEB", "OBJECT_ID": "1999-025ACM", "EPOCH": "2025-12-21T14:59:56.298624", "MEAN_MOTION": 14.61392809, "ECCENTRICITY": 0.0039595, "INCLINATION": 99.2724, "RA_OF_ASC_NODE": 220.2273, "ARG_OF_PERICENTER": 140.5694, "MEAN_ANOMALY": 291.1163, "EPHEMERIS_TYPE": 0, "CLASSIFICATION_TYPE": "U", "NORAD_CAT_ID": 30374, "ELEMENT_SET_NO": 999, "REV_AT_EPOCH": 99052, "BSTAR": 0.0011468944, "MEAN_MOTION_DOT": 5.682e-05, "MEAN_MOTION_DDOT": 0}, "tle": {"line1": "1 30374U 99025ACM 25355.62495716  .00005682  00000+0  11469-2 0  9995", "line2": "2 30374  99.2724 220.2273 0039595 140.5694 291.1163 14.61392809990521"}}, "geometry": {"type": "Point", "coordinates": [-131.05552133849932, -41.66148686341028]}}, {"type": "Feature", "properties": {"norad_id": 30377, "name": "FENGYUN 1C DEB", "group": "fengyun-1c-debris", "lat": -36.847479761066715, "lon": -171.56697355018966, "alt_km": 824.2075199432456, "timestamp": "2025-12-21T22:41:41.735961+00:00", "meta": {"OBJECT_NAME": "FENGYUN 1C DEB", "OBJECT_ID": "1999-025ACQ", "EPOCH": "2025-12-21T13:42:05.393664", "MEAN_MOTION": 13.99180095, "ECCENTRICITY": 0.0117937, "INCLINATION": 98.8926, "RA_OF_ASC_NODE": 14.807, "ARG_OF_PERICENTER": 242.0589, "MEAN_ANOMALY": 249.2778, "EPHEMERIS_TYPE": 0, "CLASSIFICATION_TYPE": "U", "NORAD_CAT_ID": 30377, "ELEMENT_SET_NO": 999, "REV_AT_EPOCH": 96330, "BSTAR": 0.00033941201, "MEAN_MOTION_DOT": 4.79e-06, "MEAN_MOTION_DDOT": 0}, "tle": {"line1": "1 30377U 99025ACQ 25355.57089576  .00000479  00000+0  33941-3 0  9994", "line2": "2 30377  98.8926  14.8070 0117937 242.0589 249.2778 13.99180095963307"}}, "geometry": {"type": "Point", "coordinates": [-171.56697355018966, -36.847479761066715]}}, {"type": "Feature", "properties": {"norad_id": 30379, "name": "FENGYUN 1C DEB", "group": "fengyun-1c-debris", "lat": -81.19432797661148, "lon": 106.091853821006, "alt_km": 848.6922319116848, "timestamp": "2025-12-21T22:41:41.735971+00:00", "meta": {"OBJECT_NAME": "FENGYUN 1C DEB", "OBJECT_ID": "1999-025ACS", "EPOCH": "2025-12-21T11:58:01.934400", "MEAN_MOTION": 14.08043646, "ECCENTRICITY": 0.00355662, "INCLINATION": 98.7577, "RA_OF_ASC_NODE": 9.9796, "ARG_OF_PERICENTER": 253.8397, "MEAN_ANOMALY": 270.6696, "EPHEMERIS_TYPE": 0, "CLASSIFICATION_TYPE": "U", "NORAD_CAT_ID": 30379, "ELEMENT_SET_NO": 999, "REV_AT_EPOCH": 96940, "BSTAR": 0.00031076938, "MEAN_MOTION_DOT": 4.89e-06, "MEAN_MOTION_DDOT": 0}, "tle": {"line1": "1 30379U 99025ACS 25355.49863350  .00000489  00000+0  31077-3 0  9996", "line2": "2 30379  98.7577   9.9796 0035566 253.8397 270.6696 14.08043646969409"}}, "geometry": {"type": "Point", "coordinates": [106.091853821006, -81.19432797661148]}}, {"type": "Feature", "properties": {"norad_id": 30380, "name": "FENGYUN 1C DEB", "group": "fengyun-1c-debris", "lat": -76.62020444106187, "lon": 85.39613085861004, "alt_km": 729.3087554891663, "timestamp": "2025-12-21T22:41:41.735981+00:00", "meta": {"OBJECT_NAME": "FENGYUN 1C DEB", "OBJECT_ID": "1999-025ACT", "EPOCH": "2025-12-21T14:47:38.747616", "MEAN_MOTION": 14.50689715, "ECCENTRICITY": 0.01779256, "INCLINATION": 98.9132, "RA_OF_ASC_NODE": 43.7648, "ARG_OF_PERICENTER": 190.6372, "MEAN_ANOMALY": 169.1038, "EPHEMERIS_TYPE": 0, "CLASSIFICATION_TYPE": "U", "NORAD_CAT_ID": 30380, "ELEMENT_SET_NO": 999, "REV_AT_EPOCH": 99694, "BSTAR": 0.00020361964, "MEAN_MOTION_DOT": 9.21e-06, "MEAN_MOTION_DDOT": 0}, "tle": {"line1": "1 30380U 99025ACT 25355.61642069  .00000921  00000+0  20362-3 0  9990", "line2": "2 30380  98.9132  43.7648 0177925 190.6372 169.1038 14.50689715996940"}}, "geometry": {"type": "Point", "coordinates": [85.39613085861004, -76.62020444106187]}}, {"type": "Feature", "properties": {"norad_id": 30381, "name": "FENGYUN 1C DEB", "group": "fengyun-1c-debris", "lat": 73.28195059022232, "lon": -0.30404604517793826, "alt_km": 806.8159166826908, "timestamp": "2025-12-21T22:41:41.735992+00:00", "meta": {"OBJECT_NAME": "FENGYUN 1C DEB", "OBJECT_ID": "1999-025ACU", "EPOCH": "2025-12-19T00:39:43.490880", "MEAN_MOTION": 14.12964402, "ECCENTRICITY": 0.00542006, "INCLINATION": 98.8127, "RA_OF_ASC_NODE": 27.9215, "ARG_OF_PERICENTER": 58.3524, "MEAN_ANOMALY": 302.292, "EPHEMERIS_TYPE": 0, "CLASSIFICATION_TYPE": "U", "NORAD_CAT_ID": 30381, "ELEMENT_SET_NO": 999, "REV_AT_EPOCH": 92255, "BSTAR": 0.00085196275, "MEAN_MOTION_DOT": 1.567e-05, "MEAN_MOTION_DDOT": 0}, "tle": {"line1": "1 30381U 99025ACU 25353.02758670  .00001567  00000+0  85196-3 0  9993", "line2": "2 30381  98.8127  27.9215 0054200  58.3524 302.2920 14.12964402922550"}}, "geometry": {"type": "Point", "coordinates": [-0.30404604517793826, 73.28195059022232]}}, {"type": "Feature", "properties": {"norad_id": 30382, "name": "FENGYUN 1C DEB", "group": "fengyun-1c-debris", "lat": 68.13905934091929, "lon": -124.08143390258483, "alt_km": 885.279087946913, "timestamp": "2025-12-21T22:41:41.736002+00:00", "meta": {"OBJECT_NAME": "FENGYUN 1C DEB", "OBJECT_ID": "1999-025ACV", "EPOCH": "2025-12-21T02:05:25.965312", "MEAN_MOTION": 14.25321471, "ECCENTRICITY": 0.01544116, "INCLINATION": 98.4985, "RA_OF_ASC_NODE": 33.2057, "ARG_OF_PERICENTER": 332.5034, "MEAN_ANOMALY": 53.8581, "EPHEMERIS_TYPE": 0, "CLASSIFICATION_TYPE": "U", "NORAD_CAT_ID": 30382, "ELEMENT_SET_NO": 999, "REV_AT_EPOCH": 97654, "BSTAR": 0.00060354336, "MEAN_MOTION_DOT": 1.565e-05, "MEAN_MOTION_DDOT": 0}, "tle": {"line1": "1 30382U 99025ACV 25355.08710608  .00001565  00000+0  60354-3 0  9998", "line2": "2 30382  98.4985  33.2057 0154411 332.5034  53.8581 14.25321471976548"}}, "geometry": {"type": "Point", "coordinates": [-124.08143390258483, 68.13905934091929]}}, {"type": "Feature", "properties": {"norad_id": 30385, "name": "FENGYUN 1C DEB", "group": "fengyun-1c-debris", "lat": 30.10558757461936, "lon": -157.4952324481744, "alt_km": 794.6194959649565, "timestamp": "2025-12-21T22:41:41.736013+00:00", "meta": {"OBJECT_NAME": "FENGYUN 1C DEB", "OBJECT_ID": "1999-025ACY", "EPOCH": "2025-12-21T07:16:26.256288", "MEAN_MOTION": 14.38803249, "ECCENTRICITY": 0.0124668, "INCLINATION": 99.0812, "RA_OF_ASC_NODE": 16.504, "ARG_OF_PERICENTER": 264.2075, "MEAN_ANOMALY": 160.2136, "EPHEMERIS_TYPE": 0, "CLASSIFICATION_TYPE": "U", "NORAD_CAT_ID": 30385, "ELEMENT_SET_NO": 999, "REV_AT_EPOCH": 98892, "BSTAR": 0.00022938, "MEAN_MOTION_DOT": 7.18e-06, "MEAN_MOTION_DDOT": 0}, "tle": {"line1": "1 30385U 99025ACY 25355.30308167  .00000718  00000+0  22938-3 0  9994", "line2": "2 30385  99.0812  16.5040 0124668 264.2075 160.2136 14.38803249988926"}}, "geometry": {"type": "Point", "coordinates": [-157.4952324481744, 30.10558757461936]}}]}